ONEWEB-0589             
1 54655U 22166P   25285.97233752  .00000078  00000+0  15654-3 0  9990
2 54655  87.9168 293.3200 0001736  63.5667 296.5645 13.21790743138887
ONEWEB-0590             
1 54656U 22166Q   25285.99622090  .00000077  00000+0  15473-3 0  9998
2 54656  87.9167 293.2910 0002301  84.7977 275.3420 13.21700709138870
ONEWEB-0591             
1 54657U 22166R   25285.93288024 -.00000003  00000+0 -38817-4 0  9997
2 54657  87.9165 293.3275 0001888  86.8427 273.2923 13.21796948138893
ONEWEB-0592             
1 54658U 22166S   25285.93608018 -.00000082  00000+0 -23110-3 0  9993
2 54658  87.9175 293.2840 0001874  87.0901 273.0447 13.21784531138778
ONEWEB-0593             
1 54659U 22166T   25285.95949409  .00000135  00000+0  29464-3 0  9993
2 54659  87.9166 293.3122 0001682  89.8714 270.2613 13.21838038138880
ONEWEB-0594             
1 54660U 22166U   25285.97872694  .00000085  00000+0  17515-3 0  9996
2 54660  87.9170 293.3258 0001836  92.3123 267.8221 13.21768014138907
ONEWEB-0595             
1 54661U 22166V   25285.95630687  .00000097  00000+0  20398-3 0  9995
2 54661  87.9167 293.3048 0002047  93.2652 266.8716 13.21849489138873
ONEWEB-0596             
1 54662U 22166W   25285.92966521 -.00000017  00000+0 -73210-4 0  9998
2 54662  87.9169 293.3259 0001932  89.2394 270.8962 13.21809070138870
ONEWEB-0597             
1 54663U 22166X   25285.98672824  .00000107  00000+0  22690-3 0  9998
2 54663  87.9169 293.3186 0001829  87.3081 272.8263 13.21733750138885
ONEWEB-0600             
1 54664U 22166Y   25285.96911533  .00000109  00000+0  23188-3 0  9995
2 54664  87.9167 293.3133 0001716  89.9635 270.1696 13.21802106138854
ONEWEB-0601             
1 54665U 22166Z   25285.96111566  .00000132  00000+0  28846-3 0  9996
2 54665  87.9169 293.3328 0001711  81.5135 278.6193 13.21831142139040
ONEWEB-0602             
1 54666U 22166AA  25285.92458579  .00000017  00000+0  10150-4 0  9993
2 54666  87.9171 293.3426 0001528  94.7629 265.3679 13.21683176138888
ONEWEB-0603             
1 54667U 22166AB  25285.93128488 -.00000023  00000+0 -86512-4 0  9992
2 54667  87.9175 293.2765 0001775  88.8266 271.3071 13.21802638138815
ONEWEB-0604             
1 54668U 22166AC  25285.91906144  .00000042  00000+0  69607-4 0  9999
2 54668  87.9170 293.3032 0001674  88.5768 271.5557 13.21706725138777
ONEWEB-0605             
1 54669U 22166AD  25285.98832904  .00000119  00000+0  25589-3 0  9994
2 54669  87.9168 293.3187 0002006  71.7403 288.3950 13.21727259138853
ONEWEB-0606             
1 54670U 22166AE  25285.93446859 -.00000038  00000+0 -12379-3 0  9996
2 54670  87.9167 293.3399 0002032  94.3905 265.7461 13.21791030138906
ONEWEB-0607             
1 54671U 22166AF  25285.97712809  .00000076  00000+0  15218-3 0  9997
2 54671  87.9170 293.2952 0001735  87.7635 272.3698 13.21774944138888
ONEWEB-0608             
1 54672U 22166AG  25285.98352317  .00000118  00000+0  25372-3 0  9992
2 54672  87.9172 293.2775 0001699  74.6993 285.4328 13.21754595138891
ONEWEB-0610             
1 54673U 22166AH  25285.96432475  .00000087  00000+0  17961-3 0  9995
2 54673  87.9168 293.3190 0001681  71.7139 288.4177 13.21824043138790
ONEWEB-0611             
1 54674U 22166AJ  25285.95792291  .00000089  00000+0  18350-3 0  9995
2 54674  87.9166 293.3159 0001935  97.2535 262.8819 13.21844496138781
ONEWEB-0612             
1 54675U 22166AK  25285.97071612  .00000071  00000+0  13953-3 0  9990
2 54675  87.9170 293.2915 0001753  86.2443 273.8891 13.21795628138773
ONEWEB-0615             
1 54676U 22166AL  25285.95151551  .00000085  00000+0  17383-3 0  9996
2 54676  87.9168 293.3220 0001873  91.1326 269.0022 13.21868680138782
ONEWEB-0655             
1 54677U 22166AM  25285.92546729  .00000053  00000+0  97437-4 0  9993
2 54677  87.9168 293.3325 0001567  90.8164 269.3149 13.21678181138772
ONEWEB-0659             
1 54678U 22166AN  25285.94247368 -.00000047  00000+0 -14454-3 0  9995
2 54678  87.9167 293.3292 0002003  91.4478 268.6886 13.21760970138864
ONEWEB-0685             
1 54679U 22166AP  25285.94373022  .00000015  00000+0  41597-5 0  9996
2 54679  87.9168 293.3251 0001717  83.4887 276.6442 13.21829604138752
ONEWEB-0712             
1 54680U 22166AQ  25285.99390077  .00000095  00000+0  21538-3 0  9991
2 54680  87.8985 278.0165 0001377  98.2038 261.9249 13.16594745139536
ONEWEB-0714             
1 54681U 22166AR  25285.94989316  .00000104  00000+0  22007-3 0  9990
2 54681  87.9169 293.3176 0001676  88.2857 271.8469 13.21873353138875
ONEWEB-0532             
1 55140U 23004A   25285.78518500  .00000087  00000+0  18961-3 0  9992
2 55140  87.9103  55.0550 0001925  86.4981 273.6370 13.17649266135000
ONEWEB-0533             
1 55141U 23004B   25285.38170509  .00000356  00000+0  95548-3 0  9997
2 55141  87.8958  39.8894 0001527  97.9456 262.1846 13.12442630135553
ONEWEB-0541             
1 55142U 23004C   25285.67557614 -.00000332  00000+0 -97196-3 0  9993
2 55142  87.8820  70.3412 0001765  94.7361 265.3968 13.11417133133504
ONEWEB-0543             
1 55143U 23004D   25285.73054303  .00000132  00000+0  30114-3 0  9991
2 55143  87.9209  24.6467 0001589 108.5358 251.5947 13.18688546137089
ONEWEB-0544             
1 55144U 23004E   25285.72395206  .00000046  00000+0  83141-4 0  9994
2 55144  87.9208  24.6378 0001814 108.4795 251.6534 13.18687121137086
ONEWEB-0560             
1 55145U 23004F   25285.56560085  .00000079  00000+0  16887-3 0  9994
2 55145  87.9221  24.6508 0001909 109.1950 250.9389 13.18687071137076
ONEWEB-0565             
1 55146U 23004G   25285.55899804  .00000001  00000+0 -31350-4 0  9997
2 55146  87.9212  24.7042 0002318 102.0796 258.0596 13.18684180137062
ONEWEB-0567             
1 55147U 23004H   25285.55239907  .00000148  00000+0  34308-3 0  9996
2 55147  87.9220  24.6674 0002169 105.6466 254.4906 13.18685367137062
ONEWEB-0569             
1 55148U 23004J   25285.65947181 -.00000156  00000+0 -46274-3 0  9994
2 55148  87.9060   9.3909 0002546 120.9675 239.1705 13.13469340137688
ONEWEB-0570             
1 55149U 23004K   25285.31487958  .00000041  00000+0  71566-4 0  9993
2 55149  87.9220  24.7149 0002227  90.4771 269.6616 13.18687562137028
ONEWEB-0571             
1 55150U 23004L   25285.30829471  .00000051  00000+0  97251-4 0  9994
2 55150  87.9211  24.7191 0003017 111.6017 248.5437 13.18687731137030
ONEWEB-0572             
1 55151U 23004M   25285.81554198  .00000121  00000+0  27927-3 0  9992
2 55151  87.9101  55.0580 0001895  98.4810 261.6537 13.17647626134901
ONEWEB-0573             
1 55152U 23004N   25285.75694807  .00000094  00000+0  20480-3 0  9994
2 55152  87.9215  24.6367 0002657  98.4186 261.7248 13.18686951137083
ONEWEB-0588             
1 55153U 23004P   25285.29507376  .00000149  00000+0  34415-3 0  9992
2 55153  87.9223  24.7172 0002162  93.6041 266.5339 13.18684210137020
ONEWEB-0598             
1 55154U 23004Q   25285.65352850 -.00000274  00000+0 -80825-3 0  9995
2 55154  87.8810  70.3776 0002119 109.3891 250.7466 13.11415775133459
ONEWEB-0599             
1 55155U 23004R   25285.77672802 -.00000001  00000+0 -36981-4 0  9994
2 55155  87.9101  55.0689 0001694 104.5331 255.5989 13.17646837134905
ONEWEB-0614             
1 55156U 23004S   25285.64845200 -.00000122  00000+0 -38116-3 0  9990
2 55156  87.8808  70.3881 0001725  83.9330 276.1995 13.11413889133398
ONEWEB-0616             
1 55157U 23004T   25285.59112252  .00000045  00000+0  82766-4 0  9992
2 55157  87.9100  55.0966 0001254 136.0000 224.1231 13.17649471135099
ONEWEB-0617             
1 55158U 23004U   25285.63658958  .00000316  00000+0  85571-3 0  9993
2 55158  87.8811  70.3690 0001891  87.6319 272.5025 13.11415076133411
ONEWEB-0618             
1 55159U 23004V   25286.00002315  .02061198  00000+0  14855+0 0  9996
2 55159  86.9040 277.7984 0016605 125.3107 324.1695 15.00594531  5733
ONEWEB-0619             
1 55160U 23004W   25285.77504068  .00000055  00000+0  10849-3 0  9999
2 55160  87.9098  55.0343 0001294  86.0415 274.0865 13.17650701135013
ONEWEB-0620             
1 55161U 23004X   25285.63150299  .00000544  00000+0  14977-2 0  9996
2 55161  87.8808  70.3904 0001889  97.1883 262.9460 13.11416267133383
ONEWEB-0621             
1 55162U 23004Y   25285.65861520 -.00000459  00000+0 -13309-2 0  9990
2 55162  87.8819  70.3484 0001563  87.2805 272.8501 13.11415743133364
ONEWEB-0622             
1 55163U 23004Z   25285.66370895 -.00000499  00000+0 -14425-2 0  9996
2 55163  87.8808  70.3637 0002197  78.5365 281.6010 13.11416162133359
ONEWEB-0623             
1 55164U 23004AA  25285.61811552  .00000057  00000+0  11271-3 0  9997
2 55164  87.9092  55.1194 0001830  73.9083 286.2250 13.17647767134984
ONEWEB-0624             
1 55165U 23004AB  25285.59092399 -.00000292  00000+0 -84138-3 0  9990
2 55165  87.8946  39.8222 0001680  90.8090 269.3231 13.12916247135587
ONEWEB-0625             
1 55166U 23004AC  25285.75985619  .00000003  00000+0 -25232-4 0  9995
2 55166  87.9091  55.0872 0001533 101.8489 258.2815 13.17650805134992
ONEWEB-0626             
1 55167U 23004AD  25285.59787524  .00000093  00000+0  20671-3 0  9992
2 55167  87.9092  55.1187 0002138 106.6398 253.4968 13.17650534134971
ONEWEB-0627             
1 55168U 23004AE  25285.81387679  .00000197  00000+0  47357-3 0  9990
2 55168  87.9089  55.0766 0001871  80.7100 279.4243 13.17650067135006
ONEWEB-0628             
1 55169U 23004AF  25285.78573924  .00000235  00000+0  61672-3 0  9996
2 55169  87.8959  39.7942 0001765  76.8766 283.2559 13.12441015135585
ONEWEB-0629             
1 55170U 23004AG  25285.78939208 -.00000051  00000+0 -16497-3 0  9992
2 55170  87.9098  55.0776 0001422  91.5190 268.6104 13.17650901135004
ONEWEB-0631             
1 55171U 23004AH  25285.66787412  .00000007  00000+0 -15349-4 0  9994
2 55171  87.9233  24.5844 0002371  99.2695 260.8706 13.18687115137059
